LANDSAT 9               
1 49260U 21088A   23363.45898835  .00000679  00000+0  16074-3 0  9999
2 49260  98.2096  70.7976 0001121  92.7651 267.3676 14.57121141119823
